{"type": "FeatureCollection", "features": [ {"type": "Feature", "properties": {"norad_id": 30252, "name": "FENGYUN 1C DEB", "group": "fengyun-1c-debris", "lat": -67.25198114940535, "lon": 21.117229822979862, "alt_km": 832.5748095413692, "timestamp": "2025-12-10T11:33:53.660342+00:00", "meta": {"OBJECT_NAME": "FENGYUN 1C DEB", "OBJECT_ID": "1999-025XM", "EPOCH": "2025-12-09T19:40:49.137024", "MEAN_MOTION": 14.09703724, "ECCENTRICITY": 0.0065885, "INCLINATION": 98.7435, "RA_OF_ASC_NODE": 358.9415, "ARG_OF_PERICENTER": 249.9866, "MEAN_ANOMALY": 283.6135, "EPHEMERIS_TYPE": 0, "CLASSIFICATION_TYPE": "U", "NORAD_CAT_ID": 30252, "ELEMENT_SET_NO": 999, "REV_AT_EPOCH": 96924, "BSTAR": 0.00071428, "MEAN_MOTION_DOT": 1.235e-05, "MEAN_MOTION_DDOT": 0}, "tle": {"line1": "1 30252U 99025XM  25343.82001316  .00001235  00000+0  71428-3 0  9990", "line2": "2 30252  98.7435 358.9415 0065885 249.9866 283.6135 14.09703724969246"}}, "geometry": {"type": "Point", "coordinates": [21.117229822979862, -67.25198114940535]}}, {"type": "Feature", "properties": {"norad_id": 30253, "name": "FENGYUN 1C DEB", "group": "fengyun-1c-debris", "lat": 18.72262031137988, "lon": 69.74171403600305, "alt_km": 843.6321831465111, "timestamp": "2025-12-10T11:33:53.660352+00:00", "meta": {"OBJECT_NAME": "FENGYUN 1C DEB", "OBJECT_ID": "1999-025XN", "EPOCH": "2025-12-09T06:02:04.288128", "MEAN_MOTION": 13.73162746, "ECCENTRICITY": 0.0221741, "INCLINATION": 98.752, "RA_OF_ASC_NODE": 71.6082, "ARG_OF_PERICENTER": 50.5688, "MEAN_ANOMALY": 10.4331, "EPHEMERIS_TYPE": 0, "CLASSIFICATION_TYPE": "U", "NORAD_CAT_ID": 30253, "ELEMENT_SET_NO": 999, "REV_AT_EPOCH": 93966, "BSTAR": 0.0024623, "MEAN_MOTION_DOT": 2.682e-05, "MEAN_MOTION_DDOT": 0}, "tle": {"line1": "1 30253U 99025XN  25343.25143852  .00002682  00000+0  24623-2 0  9991", "line2": "2 30253  98.7520  71.6082 0221741  50.5688  10.4331 13.73162746939664"}}, "geometry": {"type": "Point", "coordinates": [69.74171403600305, 18.72262031137988]}}, {"type": "Feature", "properties": {"norad_id": 30257, "name": "FENGYUN 1C DEB", "group": "fengyun-1c-debris", "lat": -68.19580240990126, "lon": 5.750342449673655, "alt_km": 910.6116348748537, "timestamp": "2025-12-10T11:33:53.660362+00:00", "meta": {"OBJECT_NAME": "FENGYUN 1C DEB", "OBJECT_ID": "1999-025XS", "EPOCH": "2025-12-09T17:59:53.564064", "MEAN_MOTION": 14.0972162, "ECCENTRICITY": 0.005967, "INCLINATION": 98.7495, "RA_OF_ASC_NODE": 342.3981, "ARG_OF_PERICENTER": 107.5622, "MEAN_ANOMALY": 70.0325, "EPHEMERIS_TYPE": 0, "CLASSIFICATION_TYPE": "U", "NORAD_CAT_ID": 30257, "ELEMENT_SET_NO": 999, "REV_AT_EPOCH": 97175, "BSTAR": 0.00027615, "MEAN_MOTION_DOT": 4.5e-06, "MEAN_MOTION_DDOT": 0}, "tle": {"line1": "1 30257U 99025XS  25343.74992551  .00000450  00000+0  27615-3 0  9993", "line2": "2 30257  98.7495 342.3981 0059670 107.5622  70.0325 14.09721620971759"}}, "geometry": {"type": "Point", "coordinates": [5.750342449673655, -68.19580240990126]}}, {"type": "Feature", "properties": {"norad_id": 30259, "name": "FENGYUN 1C DEB", "group": "fengyun-1c-debris", "lat": -0.20169102381621895, "lon": -163.8681818608909, "alt_km": 703.8859305923797, "timestamp": "2025-12-10T11:33:53.660372+00:00", "meta": {"OBJECT_NAME": "FENGYUN 1C DEB", "OBJECT_ID": "1999-025XU", "EPOCH": "2025-12-10T02:12:30.535776", "MEAN_MOTION": 14.51483345, "ECCENTRICITY": 0.0242092, "INCLINATION": 98.7616, "RA_OF_ASC_NODE": 195.6941, "ARG_OF_PERICENTER": 276.3634, "MEAN_ANOMALY": 204.8701, "EPHEMERIS_TYPE": 0, "CLASSIFICATION_TYPE": "U", "NORAD_CAT_ID": 30259, "ELEMENT_SET_NO": 999, "REV_AT_EPOCH": 99436, "BSTAR": 0.00066967, "MEAN_MOTION_DOT": 3.858e-05, "MEAN_MOTION_DDOT": 0}, "tle": {"line1": "1 30259U 99025XU  25344.09202009  .00003858  00000+0  66967-3 0  9994", "line2": "2 30259  98.7616 195.6941 0242092 276.3634 204.8701 14.51483345994364"}}, "geometry": {"type": "Point", "coordinates": [-163.8681818608909, -0.20169102381621895]}}, {"type": "Feature", "properties": {"norad_id": 30263, "name": "FENGYUN 1C DEB", "group": "fengyun-1c-debris", "lat": 11.172589258169026, "lon": -78.51138914717149, "alt_km": 989.9866234393257, "timestamp": "2025-12-10T11:33:53.660382+00:00", "meta": {"OBJECT_NAME": "FENGYUN 1C DEB", "OBJECT_ID": "1999-025XY", "EPOCH": "2025-12-09T14:16:45.185088", "MEAN_MOTION": 14.01460172, "ECCENTRICITY": 0.0144781, "INCLINATION": 98.9351, "RA_OF_ASC_NODE": 98.8395, "ARG_OF_PERICENTER": 9.0222, "MEAN_ANOMALY": 6.8359, "EPHEMERIS_TYPE": 0, "CLASSIFICATION_TYPE": "U", "NORAD_CAT_ID": 30263, "ELEMENT_SET_NO": 999, "REV_AT_EPOCH": 95981, "BSTAR": 0.0014608, "MEAN_MOTION_DOT": 2.374e-05, "MEAN_MOTION_DDOT": 0}, "tle": {"line1": "1 30263U 99025XY  25343.59496742  .00002374  00000+0  14608-2 0  9998", "line2": "2 30263  98.9351  98.8395 0144781   9.0222   6.8359 14.01460172959812"}}, "geometry": {"type": "Point", "coordinates": [-78.51138914717149, 11.172589258169026]}}, {"type": "Feature", "properties": {"norad_id": 30264, "name": "FENGYUN 1C DEB", "group": "fengyun-1c-debris", "lat": -52.03549995230217, "lon": 51.30306336313502, "alt_km": 798.9708028171372, "timestamp": "2025-12-10T11:33:53.660392+00:00", "meta": {"OBJECT_NAME": "FENGYUN 1C DEB", "OBJECT_ID": "1999-025XZ", "EPOCH": "2025-12-10T03:22:33.829248", "MEAN_MOTION": 14.07621736, "ECCENTRICITY": 0.0106943, "INCLINATION": 98.9699, "RA_OF_ASC_NODE": 39.2858, "ARG_OF_PERICENTER": 294.7194, "MEAN_ANOMALY": 84.0567, "EPHEMERIS_TYPE": 0, "CLASSIFICATION_TYPE": "U", "NORAD_CAT_ID": 30264, "ELEMENT_SET_NO": 999, "REV_AT_EPOCH": 96521, "BSTAR": 0.0015353, "MEAN_MOTION_DOT": 2.687e-05, "MEAN_MOTION_DDOT": 0}, "tle": {"line1": "1 30264U 99025XZ  25344.14066932  .00002687  00000+0  15353-2 0  9990", "line2": "2 30264  98.9699  39.2858 0106943 294.7194  84.0567 14.07621736965211"}}, "geometry": {"type": "Point", "coordinates": [51.30306336313502, -52.03549995230217]}}, {"type": "Feature", "properties": {"norad_id": 30265, "name": "FENGYUN 1C DEB", "group": "fengyun-1c-debris", "lat": -80.81292483984672, "lon": 164.00156764357487, "alt_km": 711.1159711715381, "timestamp": "2025-12-10T11:33:53.660402+00:00", "meta": {"OBJECT_NAME": "FENGYUN 1C DEB", "OBJECT_ID": "1999-025YA", "EPOCH": "2025-12-09T06:37:15.108384", "MEAN_MOTION": 14.58503851, "ECCENTRICITY": 0.0028443, "INCLINATION": 98.6624, "RA_OF_ASC_NODE": 92.2514, "ARG_OF_PERICENTER": 23.947, "MEAN_ANOMALY": 40.8045, "EPHEMERIS_TYPE": 0, "CLASSIFICATION_TYPE": "U", "NORAD_CAT_ID": 30265, "ELEMENT_SET_NO": 999, "REV_AT_EPOCH": 98351, "BSTAR": 0.0031209, "MEAN_MOTION_DOT": 0.00014554, "MEAN_MOTION_DDOT": 0}, "tle": {"line1": "1 30265U 99025YA  25343.27586931  .00014554  00000+0  31209-2 0  9994", "line2": "2 30265  98.6624  92.2514 0028443  23.9470  40.8045 14.58503851983519"}}, "geometry": {"type": "Point", "coordinates": [164.00156764357487, -80.81292483984672]}}, {"type": "Feature", "properties": {"norad_id": 30266, "name": "FENGYUN 1C DEB", "group": "fengyun-1c-debris", "lat": -76.87118330108267, "lon": 91.72152967877857, "alt_km": 902.5855284825111, "timestamp": "2025-12-10T11:33:53.660412+00:00", "meta": {"OBJECT_NAME": "FENGYUN 1C DEB", "OBJECT_ID": "1999-025YB", "EPOCH": "2025-12-10T03:36:00.565056", "MEAN_MOTION": 14.15061939, "ECCENTRICITY": 0.0082921, "INCLINATION": 99.0423, "RA_OF_ASC_NODE": 48.3266, "ARG_OF_PERICENTER": 73.3903, "MEAN_ANOMALY": 316.9655, "EPHEMERIS_TYPE": 0, "CLASSIFICATION_TYPE": "U", "NORAD_CAT_ID": 30266, "ELEMENT_SET_NO": 999, "REV_AT_EPOCH": 96753, "BSTAR": 0.0015487, "MEAN_MOTION_DOT": 3.058e-05, "MEAN_MOTION_DDOT": 0}, "tle": {"line1": "1 30266U 99025YB  25344.15000654  .00003058  00000+0  15487-2 0  9993", "line2": "2 30266  99.0423  48.3266 0082921  73.3903 316.9655 14.15061939967536"}}, "geometry": {"type": "Point", "coordinates": [91.72152967877857, -76.87118330108267]}}, {"type": "Feature", "properties": {"norad_id": 30267, "name": "FENGYUN 1C DEB", "group": "fengyun-1c-debris", "lat": 54.567435931213986, "lon": -111.72172141571498, "alt_km": 832.2518648252981, "timestamp": "2025-12-10T11:33:53.660421+00:00", "meta": {"OBJECT_NAME": "FENGYUN 1C DEB", "OBJECT_ID": "1999-025YC", "EPOCH": "2025-12-10T04:13:46.831008", "MEAN_MOTION": 14.23576895, "ECCENTRICITY": 0.0058848, "INCLINATION": 98.8493, "RA_OF_ASC_NODE": 55.3234, "ARG_OF_PERICENTER": 250.4018, "MEAN_ANOMALY": 109.0801, "EPHEMERIS_TYPE": 0, "CLASSIFICATION_TYPE": "U", "NORAD_CAT_ID": 30267, "ELEMENT_SET_NO": 999, "REV_AT_EPOCH": 97258, "BSTAR": 0.0021019, "MEAN_MOTION_DOT": 4.83e-05, "MEAN_MOTION_DDOT": 0}, "tle": {"line1": "1 30267U 99025YC  25344.17623647  .00004830  00000+0  21019-2 0  9996", "line2": "2 30267  98.8493  55.3234 0058848 250.4018 109.0801 14.23576895972586"}}, "geometry": {"type": "Point", "coordinates": [-111.72172141571498, 54.567435931213986]}}, {"type": "Feature", "properties": {"norad_id": 30270, "name": "FENGYUN 1C DEB", "group": "fengyun-1c-debris", "lat": -33.8370314979007, "lon": 172.38036397906444, "alt_km": 857.6815726845434, "timestamp": "2025-12-10T11:33:53.660431+00:00", "meta": {"OBJECT_NAME": "FENGYUN 1C DEB", "OBJECT_ID": "1999-025YF", "EPOCH": "2025-12-10T00:28:26.558112", "MEAN_MOTION": 14.11269072, "ECCENTRICITY": 0.0007294, "INCLINATION": 98.7023, "RA_OF_ASC_NODE": 357.8257, "ARG_OF_PERICENTER": 166.681, "MEAN_ANOMALY": 220.9235, "EPHEMERIS_TYPE": 0, "CLASSIFICATION_TYPE": "U", "NORAD_CAT_ID": 30270, "ELEMENT_SET_NO": 999, "REV_AT_EPOCH": 97323, "BSTAR": 0.00015298, "MEAN_MOTION_DOT": 2.34e-06, "MEAN_MOTION_DDOT": 0}, "tle": {"line1": "1 30270U 99025YF  25344.01975183  .00000234  00000+0  15298-3 0  9995", "line2": "2 30270  98.7023 357.8257 0007294 166.6810 220.9235 14.11269072973230"}}, "geometry": {"type": "Point", "coordinates": [172.38036397906444, -33.8370314979007]}}]}